0 THOR ABLESTAR DEB
1 00132U 61015S   13282.38456257  .00000015  00000-0  68804-4 0   206
2 00132 066.6604 258.3347 0068154 072.8720 002.6646 13.94090951658147
0 THOR ABLESTAR DEB
1 00132U 61015S   13284.39393642 -.00000023  00000-0  40976-4 0   218
2 00132 066.6606 253.3734 0068226 071.3873 007.2918 13.94091616658420
0 THOR ABLESTAR DEB
1 00132U 61015S   13286.40805756 -.00000021  00000-0  42677-4 0   225
2 00132 066.6609 248.4003 0068298 069.8945 035.7554 13.94091762658703
0 THOR ABLESTAR DEB
1 00132U 61015S   13289.13010212  .00000014  00000-0  68015-4 0   239
2 00132 066.6613 241.6796 0068394 067.8751 017.1464 13.94092167659088
0 THOR ABLESTAR DEB
1 00132U 61015S   13291.50260538  .00000045  00000-0  91298-4 0   245
2 00132 066.6614 235.8221 0068510 066.1269 044.2532 13.94092351659412
0 THOR ABLESTAR DEB
1 00132U 61015S   13294.15353503  .00000029  00000-0  79575-4 0   251
2 00132 066.6613 229.2773 0068633 064.1747 028.7233 13.94093263659783
